[{"OBJECT_NAME":"SL-14 R/B","OBJECT_ID":"1986-006B","EPOCH":"2026-03-17T20:46:20.758656","MEAN_MOTION":14.86826788,"ECCENTRICITY":0.0075187,"INCLINATION":82.5237,"RA_OF_ASC_NODE":252.04,"ARG_OF_PERICENTER":245.1718,"MEAN_ANOMALY":114.1666,"EPHEMERIS_TYPE":0,"CLASSIFICATION_TYPE":"U","NORAD_CAT_ID":16496,"ELEMENT_SET_NO":999,"REV_AT_EPOCH":15042,"BSTAR":6.8468e-5,"MEAN_MOTION_DOT":6.68e-6,"MEAN_MOTION_DDOT":0},{"OBJECT_NAME":"COSMOS 1743","OBJECT_ID":"1986-034A","EPOCH":"2026-03-17T09:49:24.295872","MEAN_MOTION":15.59145866,"ECCENTRICITY":0.00020189,"INCLINATION":82.5282,"RA_OF_ASC_NODE":65.7235,"ARG_OF_PERICENTER":222.8768,"MEAN_ANOMALY":137.2331,"EPHEMERIS_TYPE":0,"CLASSIFICATION_TYPE":"U","NORAD_CAT_ID":16719,"ELEMENT_SET_NO":999,"REV_AT_EPOCH":18145,"BSTAR":0.00039959231,"MEAN_MOTION_DOT":0.00031344,"MEAN_MOTION_DDOT":0},{"OBJECT_NAME":"SL-14 R/B","OBJECT_ID":"1986-046B","EPOCH":"2026-03-17T11:39:31.824000","MEAN_MOTION":14.85598106,"ECCENTRICITY":0.00225487,"INCLINATION":82.4785,"RA_OF_ASC_NODE":72.8128,"ARG_OF_PERICENTER":198.6182,"MEAN_ANOMALY":161.4212,"EPHEMERIS_TYPE":0,"CLASSIFICATION_TYPE":"U","NORAD_CAT_ID":16792,"ELEMENT_SET_NO":999,"REV_AT_EPOCH":12756,"BSTAR":4.8896555e-5,"MEAN_MOTION_DOT":4.49e-6,"MEAN_MOTION_DDOT":0},{"OBJECT_NAME":"SL-14 R/B","OBJECT_ID":"1986-055B","EPOCH":"2026-03-17T13:34:24.995712","MEAN_MOTION":14.85649766,"ECCENTRICITY":0.00176254,"INCLINATION":82.5186,"RA_OF_ASC_NODE":119.2706,"ARG_OF_PERICENTER":309.184,"MEAN_ANOMALY":203.7466,"EPHEMERIS_TYPE":0,"CLASSIFICATION_TYPE":"U","NORAD_CAT_ID":16882,"ELEMENT_SET_NO":999,"REV_AT_EPOCH":12053,"BSTAR":4.5791169e-5,"MEAN_MOTION_DOT":4.22e-6,"MEAN_MOTION_DDOT":0},{"OBJECT_NAME":"AJISAI (EGS)","OBJECT_ID":"1986-061A","EPOCH":"2026-03-17T21:27:20.619360","MEAN_MOTION":12.44515703,"ECCENTRICITY":0.0011298,"INCLINATION":50.0089,"RA_OF_ASC_NODE":68.1182,"ARG_OF_PERICENTER":308.1752,"MEAN_ANOMALY":63.7277,"EPHEMERIS_TYPE":0,"CLASSIFICATION_TYPE":"U","NORAD_CAT_ID":16908,"ELEMENT_SET_NO":999,"REV_AT_EPOCH":46902,"BSTAR":2.1081e-5,"MEAN_MOTION_DOT":-9.4e-7,"MEAN_MOTION_DDOT":0},{"OBJECT_NAME":"SL-14 R/B","OBJECT_ID":"1987-024B","EPOCH":"2026-03-17T09:09:37.221120","MEAN_MOTION":14.8613952,"ECCENTRICITY":0.00169558,"INCLINATION":82.5244,"RA_OF_ASC_NODE":85.5317,"ARG_OF_PERICENTER":232.2986,"MEAN_ANOMALY":127.6694,"EPHEMERIS_TYPE":0,"CLASSIFICATION_TYPE":"U","NORAD_CAT_ID":17567,"ELEMENT_SET_NO":999,"REV_AT_EPOCH":8927,"BSTAR":4.8261702e-5,"MEAN_MOTION_DOT":4.48e-6,"MEAN_MOTION_DDOT":0},{"OBJECT_NAME":"COSMOS 1833","OBJECT_ID":"1987-027A","EPOCH":"2026-03-17T15:31:53.193216","MEAN_MOTION":14.13052393,"ECCENTRICITY":0.00238564,"INCLINATION":70.9203,"RA_OF_ASC_NODE":309.2947,"ARG_OF_PERICENTER":203.1456,"MEAN_ANOMALY":156.8592,"EPHEMERIS_TYPE":0,"CLASSIFICATION_TYPE":"U","NORAD_CAT_ID":17589,"ELEMENT_SET_NO":999,"REV_AT_EPOCH":1144,"BSTAR":-8.9092356e-5,"MEAN_MOTION_DOT":-2.15e-6,"MEAN_MOTION_DDOT":0},{"OBJECT_NAME":"SL-16 R/B","OBJECT_ID":"1987-027B","EPOCH":"2026-03-17T05:52:32.624256","MEAN_MOTION":14.1716678,"ECCENTRICITY":0.00031333,"INCLINATION":70.9993,"RA_OF_ASC_NODE":260.5727,"ARG_OF_PERICENTER":125.6346,"MEAN_ANOMALY":234.507,"EPHEMERIS_TYPE":0,"CLASSIFICATION_TYPE":"U","NORAD_CAT_ID":17590,"ELEMENT_SET_NO":999,"REV_AT_EPOCH":1641,"BSTAR":1.5345677e-5,"MEAN_MOTION_DOT":-1.7e-7,"MEAN_MOTION_DDOT":0},{"OBJECT_NAME":"SL-14 R/B","OBJECT_ID":"1987-038B","EPOCH":"2026-03-17T20:27:06.980832","MEAN_MOTION":14.85376403,"ECCENTRICITY":0.0020322,"INCLINATION":82.4988,"RA_OF_ASC_NODE":289.117,"ARG_OF_PERICENTER":134.528,"MEAN_ANOMALY":225.76,"EPHEMERIS_TYPE":0,"CLASSIFICATION_TYPE":"U","NORAD_CAT_ID":17912,"ELEMENT_SET_NO":999,"REV_AT_EPOCH":8044,"BSTAR":4.4236e-5,"MEAN_MOTION_DOT":4.06e-6,"MEAN_MOTION_DDOT":0},{"OBJECT_NAME":"COSMOS 1844","OBJECT_ID":"1987-041A","EPOCH":"2026-03-17T21:15:51.228576","MEAN_MOTION":14.14551103,"ECCENTRICITY":0.0030435,"INCLINATION":70.9007,"RA_OF_ASC_NODE":16.8875,"ARG_OF_PERICENTER":5.8863,"MEAN_ANOMALY":354.261,"EPHEMERIS_TYPE":0,"CLASSIFICATION_TYPE":"U","NORAD_CAT_ID":17973,"ELEMENT_SET_NO":999,"REV_AT_EPOCH":474,"BSTAR":8.9805e-6,"MEAN_MOTION_DOT":-3.1e-7,"MEAN_MOTION_DDOT":0},{"OBJECT_NAME":"SL-14 R/B","OBJECT_ID":"1987-055B","EPOCH":"2026-03-17T19:51:46.162368","MEAN_MOTION":14.85638339,"ECCENTRICITY":0.00204,"INCLINATION":82.5027,"RA_OF_ASC_NODE":341.3636,"ARG_OF_PERICENTER":351.2775,"MEAN_ANOMALY":8.8083,"EPHEMERIS_TYPE":0,"CLASSIFICATION_TYPE":"U","NORAD_CAT_ID":18153,"ELEMENT_SET_NO":999,"REV_AT_EPOCH":7114,"BSTAR":4.7142e-5,"MEAN_MOTION_DOT":4.34e-6,"MEAN_MOTION_DDOT":0},{"OBJECT_NAME":"COSMOS 1867","OBJECT_ID":"1987-060A","EPOCH":"2026-03-17T19:47:30.064992","MEAN_MOTION":14.31504251,"ECCENTRICITY":0.0014602,"INCLINATION":65.0098,"RA_OF_ASC_NODE":283.9231,"ARG_OF_PERICENTER":279.1122,"MEAN_ANOMALY":80.831,"EPHEMERIS_TYPE":0,"CLASSIFICATION_TYPE":"U","NORAD_CAT_ID":18187,"ELEMENT_SET_NO":999,"REV_AT_EPOCH":2110,"BSTAR":2.3346e-5,"MEAN_MOTION_DOT":-3.8e-7,"MEAN_MOTION_DDOT":0},{"OBJECT_NAME":"SL-14 R/B","OBJECT_ID":"1988-001B","EPOCH":"2026-03-17T19:45:51.555168","MEAN_MOTION":14.85537372,"ECCENTRICITY":0.0017379,"INCLINATION":82.516,"RA_OF_ASC_NODE":187.712,"ARG_OF_PERICENTER":207.2409,"MEAN_ANOMALY":152.7897,"EPHEMERIS_TYPE":0,"CLASSIFICATION_TYPE":"U","NORAD_CAT_ID":18749,"ELEMENT_SET_NO":999,"REV_AT_EPOCH":4323,"BSTAR":5.1924e-5,"MEAN_MOTION_DOT":4.74e-6,"MEAN_MOTION_DDOT":0},{"OBJECT_NAME":"COSMOS 1933","OBJECT_ID":"1988-020A","EPOCH":"2026-03-17T19:58:04.063872","MEAN_MOTION":15.18060195,"ECCENTRICITY":0.0004513,"INCLINATION":82.5102,"RA_OF_ASC_NODE":242.8537,"ARG_OF_PERICENTER":155.4562,"MEAN_ANOMALY":204.6887,"EPHEMERIS_TYPE":0,"CLASSIFICATION_TYPE":"U","NORAD_CAT_ID":18958,"ELEMENT_SET_NO":999,"REV_AT_EPOCH":5146,"BSTAR":0.00015055,"MEAN_MOTION_DOT":3.096e-5,"MEAN_MOTION_DDOT":0},{"OBJECT_NAME":"SL-3 R/B","OBJECT_ID":"1988-032B","EPOCH":"2026-03-17T21:30:04.140000","MEAN_MOTION":15.20002938,"ECCENTRICITY":0.0025135,"INCLINATION":97.5197,"RA_OF_ASC_NODE":60.1183,"ARG_OF_PERICENTER":201.5098,"MEAN_ANOMALY":158.5083,"EPHEMERIS_TYPE":0,"CLASSIFICATION_TYPE":"U","NORAD_CAT_ID":19046,"ELEMENT_SET_NO":999,"REV_AT_EPOCH":5335,"BSTAR":0.00019915,"MEAN_MOTION_DOT":4.253e-5,"MEAN_MOTION_DDOT":0},{"OBJECT_NAME":"SL-16 R/B","OBJECT_ID":"1988-039B","EPOCH":"2026-03-17T20:55:51.238848","MEAN_MOTION":14.19617621,"ECCENTRICITY":0.0023174,"INCLINATION":71.0147,"RA_OF_ASC_NODE":51.2441,"ARG_OF_PERICENTER":322.4932,"MEAN_ANOMALY":37.4575,"EPHEMERIS_TYPE":0,"CLASSIFICATION_TYPE":"U","NORAD_CAT_ID":19120,"ELEMENT_SET_NO":999,"REV_AT_EPOCH":95954,"BSTAR":3.9944e-5,"MEAN_MOTION_DOT":3.6e-7,"MEAN_MOTION_DDOT":0},{"OBJECT_NAME":"COSMOS 1953","OBJECT_ID":"1988-050A","EPOCH":"2026-03-17T14:41:11.529600","MEAN_MOTION":15.28658508,"ECCENTRICITY":0.00126606,"INCLINATION":82.5102,"RA_OF_ASC_NODE":150.2799,"ARG_OF_PERICENTER":97.6943,"MEAN_ANOMALY":262.5734,"EPHEMERIS_TYPE":0,"CLASSIFICATION_TYPE":"U","NORAD_CAT_ID":19210,"ELEMENT_SET_NO":999,"REV_AT_EPOCH":3899,"BSTAR":0.00021344437,"MEAN_MOTION_DOT":5.994e-5,"MEAN_MOTION_DDOT":0}]
